IRIDIUM 8 [+]           
1 24792U 97020A   12014.43862438 -.00001082  00000-0 -39366-3 0  7427
2 24792  86.3927  66.5971 0002409  89.5312 270.6152 14.34213277769298
IRIDIUM 7 [+]           
1 24793U 97020B   12014.29275741  .00000237  00000-0  77739-4 0  7467
2 24793  86.3924  66.8339 0002398  86.8360 273.3080 14.34218094769277
IRIDIUM 6 [+]           
1 24794U 97020C   12014.21664579  .00000243  00000-0  79847-4 0  5435
2 24794  86.3927  66.8395 0002253  83.9654 276.1775 14.34218133769262
IRIDIUM 5 [+]           
1 24795U 97020D   12014.14052921 -.00000129  00000-0 -53202-4 0  9177
2 24795  86.3923  66.9941 0001091 101.7357 258.4019 14.34216146769339
IRIDIUM 4 [+]           
1 24796U 97020E   12014.23567418  .00000303  00000-0  10095-3 0  7723
2 24796  86.3922  66.5565 0002422  86.6904 273.4560 14.34218510769284
IRIDIUM 914 [-]         
1 24836U 97030A   12014.30113063  .00000259  00000-0  79459-4 0  3276
2 24836  86.3954  88.6113 0003540  93.4395 266.7204 14.37705888764221
IRIDIUM 12 [+]          
1 24837U 97030B   12014.29619000  .00000348  00000-0  11730-3 0  7705
2 24837  86.3952  98.1203 0002344  91.7793 268.3668 14.34223795763028
IRIDIUM 10 [+]          
1 24839U 97030D   12014.35327559  .00000385  00000-0  13046-3 0  7724
2 24839  86.3958  98.0883 0002321  89.2057 270.9405 14.34223802763048
IRIDIUM 13 [+]          
1 24840U 97030E   12014.30253306  .00000414  00000-0  14072-3 0  7205
2 24840  86.3962  98.2052 0002304  91.0911 269.0548 14.34224017763020
IRIDIUM 16 [-]          
1 24841U 97030F   12014.35602585  .00000246  00000-0  78494-4 0  7581
2 24841  86.4053  98.8494 0000774  22.0032 338.1197 14.35563629763288
IRIDIUM 911 [-]         
1 24842U 97030G   12014.31719846  .00000378  00000-0  10571-3 0  4154
2 24842  86.4468 100.6928 0014414 174.1550 185.9817 14.43535315767037
IRIDIUM 15 [+]          
1 24869U 97034A   12014.36304919  .00000355  00000-0  11976-3 0  8062
2 24869  86.3989 129.7699 0002176  92.8843 267.2597 14.34220850760007
IRIDIUM 17 [-]          
1 24870U 97034B   12014.38907215  .00000282  00000-0  92656-4 0  7528
2 24870  86.3999 129.4762 0002105  78.5814 281.5617 14.34702706760051
IRIDIUM 920 [-]         
1 24871U 97034C   12014.38855842  .00000213  00000-0  63410-4 0  3691
2 24871  86.3992 120.4020 0012796  21.1750 338.9972 14.38351789761500
IRIDIUM 18 [+]          
1 24872U 97034D   12014.39476482  .00000307  00000-0  10263-3 0  7473
2 24872  86.3986 129.9315 0002100  86.5206 273.6219 14.34220215760002
IRIDIUM 921 [-]         
1 24873U 97034E   12014.34605175  .00002465  00000-0  20019-3 0  8087
2 24873  86.3873 274.8922 0010519  40.7613 319.4399 14.99127743790070
IRIDIUM 26 [-]          
1 24903U 97043A   12014.44588691  .00000187  00000-0  59702-4 0  8693
2 24903  86.3943   3.4107 0002338  84.3589 275.7883 14.34310171753955
IRIDIUM 25 [+]          
1 24904U 97043B   12014.48254170  .00000011  00000-0 -30962-5 0  7728
2 24904  86.3939   3.3312 0002378  80.6593 279.4882 14.34214927753925
IRIDIUM 46 [+]          
1 24905U 97043C   12014.49522717  .00000043  00000-0  82591-5 0  7803
2 24905  86.3944   3.6941 0002389  83.1014 277.0455 14.34215006753931
IRIDIUM 23 [S]          
1 24906U 97043D   12014.40008915  .00000060  00000-0  14252-4 0  7845
2 24906  86.3941   3.2857 0002387  82.9287 277.2195 14.34214845753920
IRIDIUM 22 [+]          
1 24907U 97043E   12014.39374478  .00000078  00000-0  20891-4 0  7524
2 24907  86.3951   3.8061 0002434  83.1703 276.9787 14.34215299753921
DUMMY MASS 1 [-]        
1 24925U 97048A   12015.19596427  .00000283  00000-0  30604-4 0   689
2 24925  86.3353 235.4798 0005911 176.3541 183.7725 14.84070819777829
DUMMY MASS 2 [-]        
1 24926U 97048B   12014.18947331  .00000290  00000-0  31633-4 0   582
2 24926  86.3352 236.7381 0006227 189.6314 170.4790 14.83849195777563
IRIDIUM 29 [+]          
1 24944U 97051A   12014.40350555 -.00000075  00000-0 -33849-4 0  7094
2 24944  86.3913  34.9925 0002460  85.6264 274.5198 14.34219166750498
IRIDIUM 32 [+]          
1 24945U 97051B   12014.42254582  .00000031  00000-0  41110-5 0  7372
2 24945  86.3919  35.0056 0002439  83.9318 276.2158 14.34213879750512
IRIDIUM 33 [-]          
1 24946U 97051C   12014.55765120  .00000224  00000-0  75119-4 0  8417
2 24946  86.3830  35.1199 0006857 197.1302 162.9662 14.32701654750368
IRIDIUM 28 [-]          
1 24948U 97051E   12014.51396952  .00000208  00000-0  66650-4 0  5945
2 24948  86.3931  35.0555 0002028  81.6494 278.4935 14.34534892750515
IRIDIUM 30 [+]          
1 24949U 97051F   12014.41620308  .00000042  00000-0  80453-5 0  7845
2 24949  86.3918  35.0746 0002441  81.9544 278.1927 14.34213928750490
IRIDIUM 31 [+]          
1 24950U 97051G   12014.40986076  .00000008  00000-0 -42830-5 0  7281
2 24950  86.3917  35.0785 0002431  80.8631 279.2843 14.34213788750503
IRIDIUM 19 [+]          
1 24965U 97056A   12014.18493491  .00000227  00000-0  74078-4 0  7258
2 24965  86.3922  66.6902 0002363  85.5931 274.5528 14.34217707748617
IRIDIUM 35 [+]          
1 24966U 97056B   12014.26738739  .00000237  00000-0  77678-4 0  7761
2 24966  86.3927  66.6715 0002359  89.2463 270.9000 14.34218027748601
IRIDIUM 36 [-]          
1 24967U 97056C   12014.49790562  .00000233  00000-0  75741-4 0  7168
2 24967  86.3944  66.6320 0002428  84.8150 275.3324 14.34552392748798
IRIDIUM 37 [+]          
1 24968U 97056D   12014.24201622  .00000232  00000-0  75803-4 0  7366
2 24968  86.3943  66.8100 0002385  87.4367 272.7089 14.34218275748605
IRIDIUM 34 [+]          
1 24969U 97056E   12014.19127522  .00000249  00000-0  81866-4 0  7181
2 24969  86.3932  66.7724 0002359  87.3280 272.8182 14.34218315748597
IRIDIUM 43 [+]          
1 25039U 97069A   12014.24888426  .00000373  00000-0  12622-3 0  7256
2 25039  86.3983 130.0000 0002378  99.4625 260.6842 14.34221993742387
IRIDIUM 41 [+]          
1 25040U 97069B   12014.31231166  .00000312  00000-0  10431-3 0  7214
2 25040  86.3991 129.8791 0002013  80.1434 279.9988 14.34220101742397
IRIDIUM 40 [+]          
1 25041U 97069C   12014.40744966  .00000035  00000-0  53208-5 0  7530
2 25041  86.3981 129.7951 0002100  92.3135 267.8374 14.34219626742423
IRIDIUM 39 [+]          
1 25042U 97069D   12014.41380085  .00000343  00000-0  11537-3 0  7247
2 25042  86.4001 130.0519 0002018  76.9883 283.1605 14.34219160742408
IRIDIUM 38 [-]          
1 25043U 97069E   12014.53295545  .00000285  00000-0  93165-4 0  7408
2 25043  86.3990 128.7811 0001249  60.9855 299.1468 14.34963976742585
IRIDIUM 42 [+]          
1 25077U 97077A   12014.40110745  .00000331  00000-0  11113-3 0  7299
2 25077  86.3993 129.8920 0002143  92.1353 268.0081 14.34220279738260
IRIDIUM 44 [-]          
1 25078U 97077B   12014.45272578  .00000305  00000-0  96498-4 0  2159
2 25078  86.3999 123.8323 0001257  19.8303 340.2942 14.36883372739074
IRIDIUM 45 [+]          
1 25104U 97082A   12014.41911616  .00000063  00000-0  15533-4 0  6879
2 25104  86.3932   3.3555 0002459  84.0907 276.0586 14.34215122736469
IRIDIUM 24 [-]          
1 25105U 97082B   12014.43807133  .00000330  00000-0  10119-3 0  2697
2 25105  86.3912 351.0016 0013579  27.1559 333.0343 14.38601064737957
IRIDIUM 47 [+]          
1 25106U 97082C   12014.43180051  .00000041  00000-0  74490-5 0  6665
2 25106  86.3938   3.2875 0002393  81.8288 278.3185 14.34215127736460
IRIDIUM 49 [+]          
1 25108U 97082E   12014.44448656  .00000156  00000-0  48642-4 0  6897
2 25108  86.3954   3.3318 0002266  80.3882 279.7582 14.34215446736477
IRIDIUM 52 [+]          
1 25169U 98010A   12014.26447140  .00000362  00000-0  12216-3 0  4617
2 25169  86.3968  98.3356 0002263  89.6624 270.4826 14.34224203727850
IRIDIUM 56 [+]          
1 25170U 98010B   12014.32790570  .00000353  00000-0  11905-3 0  5912
2 25170  86.3972  98.3768 0002289  91.8691 268.2759 14.34223485727841
IRIDIUM 54 [+]          
1 25171U 98010C   12014.28985028  .00000320  00000-0  10725-3 0  6938
2 25171  86.3960  98.3340 0002321  91.8660 268.2807 14.34223325728004
IRIDIUM 50 [+]          
1 25172U 98010D   12014.32156062  .00000362  00000-0  12221-3 0  7189
2 25172  86.3967  98.2879 0002317  91.7461 268.3996 14.34223739727841
IRIDIUM 53 [+]          
1 25173U 98010E   12014.27081743  .00000332  00000-0  11140-3 0  7004
2 25173  86.3967  98.3170 0002290  90.3394 269.8062 14.34223097727844
IRIDIUM 51 [S]          
1 25262U 98018A   12014.23129592  .00000261  00000-0  71990-4 0  8240
2 25262  86.4445  66.9633 0002390  86.0549 274.0901 14.42959000727079
IRIDIUM 61 [+]          
1 25263U 98018B   12014.17859092  .00000266  00000-0  88078-4 0  6528
2 25263  86.3930  66.8080 0002349  88.3028 271.8438 14.34218288722920
IRIDIUM 55 [+]          
1 25272U 98019A   12014.18152547  .00000126  00000-0  37956-4 0  6604
2 25272  86.3925  35.0292 0002387  81.0507 279.0955 14.34214600722121
IRIDIUM 57 [+]          
1 25273U 98019B   12014.43522672 -.00000735  00000-0 -26976-3 0  7049
2 25273  86.3923  35.1416 0002382  81.5038 278.6449 14.34212288722165
IRIDIUM 58 [+]          
1 25274U 98019C   12014.44157268  .00000030  00000-0  36149-5 0  5179
2 25274  86.3920  35.2788 0002374  81.7396 278.4074 14.34214098722169
IRIDIUM 59 [+]          
1 25275U 98019D   12014.51768305 -.00000244  00000-0 -94133-4 0  3137
2 25275  86.3924  35.2084 0002517  74.5865 285.5637 14.34212090722178
IRIDIUM 60 [+]          
1 25276U 98019E   12014.45425900  .00000054  00000-0  12289-4 0  7382
2 25276  86.3911  34.9306 0002370  83.9741 276.1727 14.34213925722165
IRIDIUM 62 [+]          
1 25285U 98021A   12014.41570295  .00000295  00000-0  98254-4 0  7135
2 25285  86.3976 331.8198 0002290  82.5838 277.5627 14.34217549721111
IRIDIUM 63 [+]          
1 25286U 98021B   12014.42205458  .00000252  00000-0  82861-4 0  7313
2 25286  86.3980 331.9231 0002607  79.2375 280.9125 14.34216192721111
IRIDIUM 64 [+]          
1 25287U 98021C   12014.42838838  .00000259  00000-0  85582-4 0  6610
2 25287  86.3972 331.8401 0002403  82.0284 278.1191 14.34217469721093
